*******************************************************************************
Ephemeris / WWW_USER Mon Mar 10 08:29:06 2025 Pasadena, USA      / Horizons    
*******************************************************************************
Target body name: 300163 (2006 VW139)             {source: JPL#20}
Center body name: Earth (399)                     {source: DE441}
Center-site name: Mauna Kea
*******************************************************************************
Start time      : A.D. 2018-Sep-04 04:44:00.0000 UT      
Stop  time      : A.D. 2018-Sep-04 15:57:00.0000 UT      
Step-size       : 1 minutes
*******************************************************************************
Target pole/equ : undefined
Target radii    : undefined                                                    
Center geodetic : 204.5278, 19.8260847, 4.21024   {E-lon(deg),Lat(deg),Alt(km)}
Center cylindric: 204.5278, 6006.35451, 2151.0229 {E-lon(deg),Dxy(km),Dz(km)}
Center pole/equ : ITRF93                          {East-longitude positive}
Center radii    : 6378.137, 6378.137, 6356.752 km {Equator_a, b, pole_c}       
Target primary  : Sun
Vis. interferer : MOON (R_eq= 1737.400) km        {source: DE441}
Rel. light bend : Sun                             {source: DE441}
Rel. lght bnd GM: 1.3271E+11 km^3/s^2                                          
Small-body perts: Yes                             {source: SB441-N16}
Atmos refraction: NO (AIRLESS)
RA format       : HMS
Time format     : CAL 
Calendar mode   : Mixed Julian/Gregorian
RTS-only print  : NO       
EOP file        : eop.250307.p250603                                           
EOP coverage    : DATA-BASED 1962-JAN-20 TO 2025-MAR-07. PREDICTS-> 2025-JUN-02
Units conversion: 1 au= 149597870.700 km, c= 299792.458 km/s, 1 day= 86400.0 s 
Table cut-offs 1: Elevation (-90.0deg=NO ),Airmass (>38.000=NO), Daylight (YES)
Table cut-offs 2: Solar elongation (  0.0,180.0=NO ),Local Hour Angle( 0.0=NO )
Table cut-offs 3: RA/DEC angular rate (     0.0=NO )                           
*******************************************************************************
Initial IAU76/J2000 heliocentric ecliptic osculating elements (au, days, deg.):
  EPOCH=  2457991.5 ! 2017-Aug-26.00 (TDB)         Residual RMS= .24052        
   EC= .2010729135113919   QR= 2.43581750533798    TP= 2457700.5743979034      
   OM= 83.18687361565334   W=  281.0057800900049   IN= 3.240211778004737       
  Equivalent ICRF heliocentric cartesian coordinates (au, au/d):
   X= 5.132894709524352E-01  Y= 2.513143937276953E+00  Z= 1.078150377913554E+00
  VX=-1.001562838274837E-02 VY= 3.317467852193382E-03 VZ= 2.080280624827025E-03
Asteroid physical parameters (km, seconds, rotational period in hours):        
   GM= n.a.                RAD= n.a.               ROTPER= 3240.               
   H= 16.21                G= .150                 B-V= n.a.                   
                           ALBEDO= n.a.            STYP= n.a.                  
*******************************************************************************
 Date__(UT)__HR:MN     R.A._________(ICRF)_________DEC
******************************************************
$$SOE
 2018-Sep-04 12:56  m  10 03 53.970800 +14 14 11.22932
 2018-Sep-04 12:57  m  10 03 54.023424 +14 14 10.96221
 2018-Sep-04 12:58  m  10 03 54.076046 +14 14 10.69511
 2018-Sep-04 12:59  m  10 03 54.128667 +14 14 10.42802
 2018-Sep-04 13:00  m  10 03 54.181285 +14 14 10.16093
 2018-Sep-04 13:01  m  10 03 54.233901 +14 14 09.89384
 2018-Sep-04 13:02  m  10 03 54.286515 +14 14 09.62676
 2018-Sep-04 13:03  m  10 03 54.339127 +14 14 09.35968
 2018-Sep-04 13:04  m  10 03 54.391737 +14 14 09.09261
 2018-Sep-04 13:05  m  10 03 54.444344 +14 14 08.82555
 2018-Sep-04 13:06  m  10 03 54.496950 +14 14 08.55849
 2018-Sep-04 13:07  m  10 03 54.549554 +14 14 08.29143
 2018-Sep-04 13:08  m  10 03 54.602156 +14 14 08.02438
 2018-Sep-04 13:09  m  10 03 54.654755 +14 14 07.75734
 2018-Sep-04 13:10  m  10 03 54.707353 +14 14 07.49030
 2018-Sep-04 13:11  m  10 03 54.759948 +14 14 07.22326
 2018-Sep-04 13:12  m  10 03 54.812542 +14 14 06.95623
 2018-Sep-04 13:13  m  10 03 54.865133 +14 14 06.68921
 2018-Sep-04 13:14  m  10 03 54.917722 +14 14 06.42219
 2018-Sep-04 13:15  m  10 03 54.970309 +14 14 06.15517
 2018-Sep-04 13:16  m  10 03 55.022894 +14 14 05.88816
 2018-Sep-04 13:17  m  10 03 55.075477 +14 14 05.62115
 2018-Sep-04 13:18  m  10 03 55.128058 +14 14 05.35415
 2018-Sep-04 13:19  m  10 03 55.180637 +14 14 05.08715
 2018-Sep-04 13:20  m  10 03 55.233213 +14 14 04.82016
 2018-Sep-04 13:21  m  10 03 55.285787 +14 14 04.55317
 2018-Sep-04 13:22  m  10 03 55.338359 +14 14 04.28619
 2018-Sep-04 13:23  m  10 03 55.390929 +14 14 04.01921
 2018-Sep-04 13:24  m  10 03 55.443497 +14 14 03.75223
 2018-Sep-04 13:25  m  10 03 55.496063 +14 14 03.48526
 2018-Sep-04 13:26  m  10 03 55.548626 +14 14 03.21830
 2018-Sep-04 13:27  m  10 03 55.601188 +14 14 02.95133
 2018-Sep-04 13:28  m  10 03 55.653747 +14 14 02.68438
 2018-Sep-04 13:29  m  10 03 55.706304 +14 14 02.41742
 2018-Sep-04 13:30  m  10 03 55.758859 +14 14 02.15048
 2018-Sep-04 13:31  m  10 03 55.811411 +14 14 01.88353
 2018-Sep-04 13:32  m  10 03 55.863961 +14 14 01.61659
 2018-Sep-04 13:33  m  10 03 55.916510 +14 14 01.34965
 2018-Sep-04 13:34  m  10 03 55.969055 +14 14 01.08272
 2018-Sep-04 13:35  m  10 03 56.021599 +14 14 00.81579
 2018-Sep-04 13:36  m  10 03 56.074141 +14 14 00.54887
 2018-Sep-04 13:37  m  10 03 56.126680 +14 14 00.28195
 2018-Sep-04 13:38  m  10 03 56.179217 +14 14 00.01503
 2018-Sep-04 13:39  m  10 03 56.231752 +14 13 59.74812
 2018-Sep-04 13:40  m  10 03 56.284284 +14 13 59.48121
 2018-Sep-04 13:41  m  10 03 56.336814 +14 13 59.21431
 2018-Sep-04 13:42  m  10 03 56.389342 +14 13 58.94741
 2018-Sep-04 13:43  m  10 03 56.441868 +14 13 58.68051
 2018-Sep-04 13:44  m  10 03 56.494391 +14 13 58.41362
 2018-Sep-04 13:45  m  10 03 56.546913 +14 13 58.14673
 2018-Sep-04 13:46  m  10 03 56.599432 +14 13 57.87985
 2018-Sep-04 13:47  m  10 03 56.651948 +14 13 57.61296
 2018-Sep-04 13:48  m  10 03 56.704462 +14 13 57.34609
 2018-Sep-04 13:49  m  10 03 56.756974 +14 13 57.07921
 2018-Sep-04 13:50  m  10 03 56.809484 +14 13 56.81234
 2018-Sep-04 13:51  m  10 03 56.861992 +14 13 56.54547
 2018-Sep-04 13:52  m  10 03 56.914497 +14 13 56.27861
 2018-Sep-04 13:53  m  10 03 56.967000 +14 13 56.01175
 2018-Sep-04 13:54  m  10 03 57.019500 +14 13 55.74489
 2018-Sep-04 13:55  m  10 03 57.071998 +14 13 55.47804
 2018-Sep-04 13:56  m  10 03 57.124494 +14 13 55.21119
 2018-Sep-04 13:57  m  10 03 57.176988 +14 13 54.94434
 2018-Sep-04 13:58  m  10 03 57.229479 +14 13 54.67750
 2018-Sep-04 13:59  m  10 03 57.281968 +14 13 54.41066
 2018-Sep-04 14:00  m  10 03 57.334454 +14 13 54.14382
 2018-Sep-04 14:01  m  10 03 57.386938 +14 13 53.87699
 2018-Sep-04 14:02  m  10 03 57.439420 +14 13 53.61016
 2018-Sep-04 14:03  m  10 03 57.491900 +14 13 53.34333
 2018-Sep-04 14:04  m  10 03 57.544377 +14 13 53.07651
 2018-Sep-04 14:05  m  10 03 57.596851 +14 13 52.80969
 2018-Sep-04 14:06  m  10 03 57.649324 +14 13 52.54287
 2018-Sep-04 14:07  m  10 03 57.701794 +14 13 52.27606
 2018-Sep-04 14:08  m  10 03 57.754261 +14 13 52.00924
 2018-Sep-04 14:09  m  10 03 57.806727 +14 13 51.74243
 2018-Sep-04 14:10  m  10 03 57.859189 +14 13 51.47563
 2018-Sep-04 14:11  m  10 03 57.911650 +14 13 51.20883
 2018-Sep-04 14:12  m  10 03 57.964108 +14 13 50.94202
 2018-Sep-04 14:13  m  10 03 58.016564 +14 13 50.67523
 2018-Sep-04 14:14  m  10 03 58.069017 +14 13 50.40843
 2018-Sep-04 14:15  m  10 03 58.121468 +14 13 50.14164
 2018-Sep-04 14:16  m  10 03 58.173916 +14 13 49.87485
 2018-Sep-04 14:17  m  10 03 58.226362 +14 13 49.60806
 2018-Sep-04 14:18  m  10 03 58.278806 +14 13 49.34128
 2018-Sep-04 14:19  m  10 03 58.331247 +14 13 49.07450
 2018-Sep-04 14:20  m  10 03 58.383686 +14 13 48.80772
 2018-Sep-04 14:21  m  10 03 58.436123 +14 13 48.54094
 2018-Sep-04 14:22  m  10 03 58.488557 +14 13 48.27417
 2018-Sep-04 14:23  m  10 03 58.540988 +14 13 48.00739
 2018-Sep-04 14:24  m  10 03 58.593417 +14 13 47.74062
 2018-Sep-04 14:25  m  10 03 58.645844 +14 13 47.47386
 2018-Sep-04 14:26  m  10 03 58.698268 +14 13 47.20709
 2018-Sep-04 14:27  m  10 03 58.750690 +14 13 46.94033
 2018-Sep-04 14:28  m  10 03 58.803109 +14 13 46.67357
 2018-Sep-04 14:29  m  10 03 58.855526 +14 13 46.40681
 2018-Sep-04 14:30  m  10 03 58.907941 +14 13 46.14005
 2018-Sep-04 14:31  m  10 03 58.960353 +14 13 45.87330
 2018-Sep-04 14:32  m  10 03 59.012762 +14 13 45.60655
 2018-Sep-04 14:33  m  10 03 59.065169 +14 13 45.33980
 2018-Sep-04 14:34  m  10 03 59.117574 +14 13 45.07305
 2018-Sep-04 14:35  m  10 03 59.169976 +14 13 44.80631
 2018-Sep-04 14:36  m  10 03 59.222376 +14 13 44.53956
 2018-Sep-04 14:37  m  10 03 59.274773 +14 13 44.27282
 2018-Sep-04 14:38  m  10 03 59.327168 +14 13 44.00608
 2018-Sep-04 14:39  m  10 03 59.379560 +14 13 43.73934
 2018-Sep-04 14:40  m  10 03 59.431950 +14 13 43.47260
 2018-Sep-04 14:41  m  10 03 59.484337 +14 13 43.20587
 2018-Sep-04 14:42  m  10 03 59.536722 +14 13 42.93914
 2018-Sep-04 14:43  m  10 03 59.589105 +14 13 42.67240
 2018-Sep-04 14:44  m  10 03 59.641484 +14 13 42.40568
 2018-Sep-04 14:45  m  10 03 59.693862 +14 13 42.13895
 2018-Sep-04 14:46  m  10 03 59.746237 +14 13 41.87222
 2018-Sep-04 14:47  m  10 03 59.798609 +14 13 41.60550
 2018-Sep-04 14:48  m  10 03 59.850979 +14 13 41.33877
 2018-Sep-04 14:49  m  10 03 59.903346 +14 13 41.07205
 2018-Sep-04 14:50  m  10 03 59.955711 +14 13 40.80533
 2018-Sep-04 14:51  m  10 04 00.008074 +14 13 40.53861
 2018-Sep-04 14:52  m  10 04 00.060434 +14 13 40.27189
 2018-Sep-04 14:53 Am  10 04 00.112791 +14 13 40.00517
 2018-Sep-04 14:54 Am  10 04 00.165146 +14 13 39.73846
 2018-Sep-04 14:55 Am  10 04 00.217498 +14 13 39.47175
 2018-Sep-04 14:56 Am  10 04 00.269848 +14 13 39.20503
 2018-Sep-04 14:57 Am  10 04 00.322196 +14 13 38.93832
 2018-Sep-04 14:58 Am  10 04 00.374540 +14 13 38.67161
